NORAD_CAT_ID,OBJECT_NAME,OBJECT_TYPE,EPOCH,MEAN_MOTION,ECCENTRICITY,INCLINATION,RA_OF_ASC_NODE,ARG_OF_PERICENTER,MEAN_ANOMALY,BSTAR,MEAN_MOTION_DOT,MEAN_MOTION_DDOT,TLE_LINE0,TLE_LINE1,TLE_LINE2,SEMIMAJOR_AXIS,PERIOD,APOGEE,PERIGEE,DECAYED
54081.0,STARLINK-5165,PAYLOAD,2023-07-15 11:15:49,15.08836536,0.0001053,53.2183,0.7791,88.639,271.4723,6.6324e-05,7.68e-06,0.0,0 STARLINK-5165,1 54081U 22136AG  23196.46931954  .00000768  00000-0  66324-4 0  9990,2 54081  53.2183   0.7791 0001053  88.6390 271.4723 15.08836536 41296,6917.891,95.438,540.484,539.028,0.0
54081.0,STARLINK-5165,PAYLOAD,2023-07-16 17:28:08,15.0884123,0.0001097,53.217,355.1285,90.6529,269.4589,6.6368e-05,7.69e-06,0.0,0 STARLINK-5165,1 54081U 22136AG  23197.72787849  .00000769  00000-0  66368-4 0  9991,2 54081  53.2170 355.1285 0001097  90.6529 269.4589 15.08841230 41487,6917.877,95.437,540.501,538.983,0.0
54081.0,STARLINK-5165,PAYLOAD,2023-07-18 10:48:10,15.08839868,9.86e-05,53.2177,347.3978,90.0985,270.012,4.2558e-05,3.9e-06,0.0,0 STARLINK-5165,1 54081U 22136AG  23199.45011907  .00000390  00000-0  42558-4 0  9993,2 54081  53.2177 347.3978 0000986  90.0985 270.0120 15.08839868 41744,6917.881,95.438,540.428,539.064,0.0
54081.0,STARLINK-5165,PAYLOAD,2023-07-19 10:38:58,15.08832909,0.0001222,53.2196,342.9375,105.5965,254.5162,-2.1782e-07,-2.91e-06,0.0,0 STARLINK-5165,1 54081U 22136AG  23200.44373030 -.00000291  00000-0 -21782-6 0  9993,2 54081  53.2196 342.9375 0001222 105.5965 254.5162 15.08832909 41899,6917.902,95.438,540.612,538.922,0.0
54081.0,STARLINK-5165,PAYLOAD,2023-07-20 18:26:40,15.08844988,0.0001353,53.2192,336.9898,79.445,280.6695,0.00013414,1.848e-05,0.0,0 STARLINK-5165,1 54081U 22136AG  23201.76852493  .00001848  00000-0  13414-3 0  9991,2 54081  53.2192 336.9898 0001353  79.4450 280.6695 15.08844988 42095,6917.865,95.437,540.666,538.794,0.0
54081.0,STARLINK-5165,PAYLOAD,2023-07-24 08:17:30,15.08839962,0.0001303,53.2173,320.9318,109.4082,250.7052,8.5541e-05,1.074e-05,0.0,0 STARLINK-5165,1 54081U 22136AG  23205.34548711  .00001074  00000-0  85541-4 0  9996,2 54081  53.2173 320.9318 0001303 109.4082 250.7052 15.08839962 42152,6917.881,95.438,540.647,538.844,0.0
54081.0,STARLINK-5165,PAYLOAD,2023-07-25 11:19:04,15.08827832,5.17e-05,53.2169,315.8758,65.5288,294.5758,1.3168e-05,-7.8e-07,0.0,0 STARLINK-5165,1 54081U 22136AG  23206.47157780 -.00000078  00000-0  13168-4 0  9993,2 54081  53.2169 315.8758 0000517  65.5288 294.5758 15.08827832 42808,6917.918,95.438,540.14,539.425,0.0
54081.0,STARLINK-5165,PAYLOAD,2023-07-26 06:23:41,15.088389,9.5e-05,53.2182,312.3085,91.1711,268.939,7.5604e-05,9.16e-06,0.0,0 STARLINK-5165,1 54081U 22136AG  23207.26645229  .00000916  00000-0  75604-4 0  9994,2 54081  53.2182 312.3085 0000950  91.1711 268.9390 15.08838900 42440,6917.884,95.438,540.406,539.092,0.0
54081.0,STARLINK-5165,PAYLOAD,2023-07-26 15:55:59,15.08850845,0.0001074,53.2165,310.5273,2.1995,357.9002,0.00014541,2.028e-05,0.0,0 STARLINK-5165,1 54081U 22136AG  23207.66388266  .00002028  00000-0  14541-3 0  9991,2 54081  53.2165 310.5273 0001074   2.1995 357.9002 15.08850845 42984,6917.847,95.437,540.455,538.969,0.0
54081.0,STARLINK-5165,PAYLOAD,2023-07-27 07:49:51,15.08835052,0.0001004,53.2176,307.5516,91.177,268.9338,0.00019371,2.796e-05,0.0,0 STARLINK-5165,1 54081U 22136AG  23208.32629100  .00002796  00000-0  19371-3 0  9998,2 54081  53.2176 307.5516 0001004  91.1770 268.9338 15.08835052 43082,6917.896,95.438,540.455,539.066,0.0
54081.0,STARLINK-5165,PAYLOAD,2023-07-27 15:46:47,15.08839283,0.0001155,53.2163,306.063,89.6901,270.4223,0.00014119,1.96e-05,0.0,0 STARLINK-5165,1 54081U 22136AG  23208.65748905  .00001960  00000-0  14119-3 0  9996,2 54081  53.2163 306.0630 0001155  89.6901 270.4223 15.08839283 42657,6917.883,95.438,540.547,538.949,0.0
54081.0,STARLINK-5165,PAYLOAD,2023-07-28 06:05:15,15.08835623,0.0001387,53.2146,303.3862,92.3657,267.7494,-6.1939e-05,-1.273e-05,0.0,0 STARLINK-5165,1 54081U 22136AG  23209.25365247 -.00001273  00000-0 -61939-4 0  9999,2 54081  53.2146 303.3862 0001387  92.3657 267.7494 15.08835623 42744,6917.894,95.438,540.718,538.799,0.0
54081.0,STARLINK-5165,PAYLOAD,2023-07-28 15:37:34,15.08843883,0.0001278,53.2158,301.6019,77.3611,282.7524,-8.8202e-05,-1.691e-05,0.0,0 STARLINK-5165,1 54081U 22136AG  23209.65109460 -.00001691  00000-0 -88202-4 0  9992,2 54081  53.2158 301.6019 0001278  77.3611 282.7524 15.08843883 43282,6917.869,95.437,540.618,538.849,0.0
54081.0,STARLINK-5165,PAYLOAD,2023-07-29 12:17:37,15.08740457,0.0001861,53.2167,297.7386,85.3523,274.7681,0.001613,0.00025406,0.0,0 STARLINK-5165,1 54081U 22136AG  23210.51223907  .00025406  00000-0  16130-2 0  9999,2 54081  53.2167 297.7386 0001861  85.3523 274.7681 15.08740457 43416,6918.185,95.444,541.337,538.762,0.0
54081.0,STARLINK-5165,PAYLOAD,2023-07-30 10:32:59,15.08836724,0.0001047,53.2163,293.5753,80.9783,279.1328,0.00011804,1.591e-05,0.0,0 STARLINK-5165,1 54081U 22136AG  23211.43957556  .00001591  00000-0  11804-3 0  9998,2 54081  53.2163 293.5753 0001047  80.9783 279.1328 15.08836724 43554,6917.89,95.438,540.48,539.031,0.0
54081.0,STARLINK-5165,PAYLOAD,2023-07-31 11:59:08,15.08848397,0.0001078,53.2167,288.8166,84.477,275.6345,9.2313e-05,1.182e-05,0.0,0 STARLINK-5165,1 54081U 22136AG  23212.49940844  .00001182  00000-0  92313-4 0  9998,2 54081  53.2167 288.8166 0001078  84.4770 275.6345 15.08848397 43719,6917.855,95.437,540.465,538.974,0.0
54081.0,STARLINK-5165,PAYLOAD,2023-07-31 21:31:28,15.0884364,0.000109,53.2162,287.0326,82.3626,277.749,9.6132e-06,-1.35e-06,0.0,0 STARLINK-5165,1 54081U 22136AG  23212.89685227 -.00000135  00000-0  96132-5 0  9995,2 54081  53.2162 287.0326 0001090  82.3626 277.7490 15.08843640 43770,6917.869,95.437,540.488,538.98,0.0
54081.0,STARLINK-5165,PAYLOAD,2023-08-01 10:14:33,15.08836659,0.000115,53.217,284.656,85.2759,274.8364,3.9898e-05,3.47e-06,0.0,0 STARLINK-5165,1 54081U 22136AG  23213.42677677  .00000347  00000-0  39898-4 0  9994,2 54081  53.2170 284.6560 0001150  85.2759 274.8364 15.08836659 43857,6917.891,95.438,540.551,538.96,0.0
54081.0,STARLINK-5165,PAYLOAD,2023-08-02 11:40:43,15.08838372,0.0001082,53.2173,279.8973,83.6084,276.5031,8.0967e-06,-1.59e-06,0.0,0 STARLINK-5165,1 54081U 22136AG  23214.48661793 -.00000159  00000-0  80967-5 0  9999,2 54081  53.2173 279.8973 0001082  83.6084 276.5031 15.08838372 44014,6917.885,95.438,540.499,539.002,0.0
54081.0,STARLINK-5165,PAYLOAD,2023-08-03 16:17:39,15.08849171,0.0001087,53.2161,274.5435,90.8238,269.2878,0.00015216,2.135e-05,0.0,0 STARLINK-5165,1 54081U 22136AG  23215.67892751  .00002135  00000-0  15216-3 0  9999,2 54081  53.2161 274.5435 0001087  90.8238 269.2878 15.08849171 44198,6917.852,95.437,540.469,538.965,0.0
54081.0,STARLINK-5165,PAYLOAD,2023-08-04 03:25:23,15.08827818,0.0001266,53.2163,272.4623,82.2444,277.8692,-1.2582e-05,-4.88e-06,0.0,0 STARLINK-5165,1 54081U 22136AG  23216.14262844 -.00000488  00000-0 -12582-4 0  9991,2 54081  53.2163 272.4623 0001266  82.2444 277.8692 15.08827818 44260,6917.918,95.438,540.658,538.907,0.0
54081.0,STARLINK-5165,PAYLOAD,2023-08-04 11:22:18,15.08834103,0.000112,53.2161,270.9753,91.9409,268.1711,4.4254e-05,4.16e-06,0.0,0 STARLINK-5165,1 54081U 22136AG  23216.47382444  .00000416  00000-0  44254-4 0  9996,2 54081  53.2161 270.9753 0001120  91.9409 268.1711 15.08834103 44318,6917.898,95.438,540.538,538.989,0.0
54081.0,STARLINK-5165,PAYLOAD,2023-08-05 09:37:41,15.08851581,0.0001148,53.2158,266.8119,87.062,273.0503,0.00013023,1.786e-05,0.0,0 STARLINK-5165,1 54081U 22136AG  23217.40117237  .00001786  00000-0  13023-3 0  9996,2 54081  53.2158 266.8119 0001148  87.0620 273.0503 15.08851581 44453,6917.845,95.437,540.504,538.916,0.0
54081.0,STARLINK-5165,PAYLOAD,2023-08-06 03:06:56,15.08832713,0.0001359,53.2163,263.5364,118.4288,241.6841,0.00015425,2.167e-05,0.0,0 STARLINK-5165,1 54081U 22136AG  23218.12982201  .00002167  00000-0  15425-3 0  9999,2 54081  53.2163 263.5364 0001359 118.4288 241.6841 15.08832713 44562,6917.903,95.438,540.708,538.828,0.0
54081.0,STARLINK-5165,PAYLOAD,2023-08-07 09:19:15,15.08850698,0.0001134,53.2156,257.8906,82.9361,277.176,5.5498e-06,-1.99e-06,0.0,0 STARLINK-5165,1 54081U 22136AG  23219.38837779 -.00000199  00000-0  55498-5 0  9997,2 54081  53.2156 257.8906 0001134  82.9361 277.1760 15.08850698 44757,6917.848,95.437,540.497,538.928,0.0
54081.0,STARLINK-5165,PAYLOAD,2023-08-08 02:48:30,15.08837743,0.0001116,53.215,254.6194,78.1978,281.9139,0.00016328,2.312e-05,0.0,0 STARLINK-5165,1 54081U 22136AG  23220.11702191  .00002312  00000-0  16328-3 0  9994,2 54081  53.2150 254.6194 0001116  78.1978 281.9139 15.08837743 44867,6917.887,95.438,540.524,538.98,0.0
54081.0,STARLINK-5165,PAYLOAD,2023-08-09 02:39:18,15.08837461,0.0001122,53.2155,250.1599,80.1671,279.9447,2.6796e-05,1.39e-06,0.0,0 STARLINK-5165,1 54081U 22136AG  23221.11062667  .00000139  00000-0  26796-4 0  9998,2 54081  53.2155 250.1599 0001122  80.1671 279.9447 15.08837461 45016,6917.888,95.438,540.529,538.977,0.0
54081.0,STARLINK-5165,PAYLOAD,2023-08-10 10:26:59,15.08850384,0.0001004,53.2143,244.2107,77.9902,282.1202,0.00010031,1.309e-05,0.0,0 STARLINK-5165,1 54081U 22136AG  23222.43541423  .00001309  00000-0  10031-3 0  9990,2 54081  53.2143 244.2107 0001004  77.9902 282.1202 15.08850384 45218,6917.849,95.437,540.408,539.019,0.0
54081.0,STARLINK-5165,PAYLOAD,2023-08-10 18:23:56,15.08840624,0.000111,53.2139,242.7222,75.986,284.1256,-3.9256e-06,-3.5e-06,0.0,0 STARLINK-5165,1 54081U 22136AG  23222.76662202 -.00000350  00000-0 -39256-5 0  9994,2 54081  53.2139 242.7222 0001110  75.9860 284.1256 15.08840624 45265,6917.878,95.438,540.511,538.976,0.0
54081.0,STARLINK-5165,PAYLOAD,2023-08-11 07:07:02,15.08829068,0.0001278,53.2155,240.3436,87.5337,272.5801,-2.085e-05,-6.2e-06,0.0,0 STARLINK-5165,1 54081U 22136AG  23223.29655319 -.00000620  00000-0 -20850-4 0  9993,2 54081  53.2155 240.3436 0001278  87.5337 272.5801 15.08829068 45342,6917.914,95.438,540.663,538.895,0.0
